{
  "norad_id": 62517,
  "name": "STARLINK-11512 [DTC]",
  "history": [
    {
      "epoch": "2026-03-28T15:23:47.683104Z",
      "apogee_km": 357.0766934939311,
      "perigee_km": 355.04027277983096,
      "latitude_deg": 6.714251386573963e-08,
      "longitude_deg": -100.91653037027845,
      "height_km": 356.25230830604306,
      "semi_major_axis_km": 6734.195483136881,
      "eccentricity": 0.0001512,
      "inclination_deg": 42.9987,
      "raan_deg": 316.0912,
      "arg_perigee_deg": 245.5385,
      "mean_anomaly_deg": 114.5325,
      "mean_motion_rev_day": 15.70992759
    },
    {
      "epoch": "2026-03-29T23:26:33.549216Z",
      "apogee_km": 357.61571814726267,
      "perigee_km": 355.17202627497136,
      "latitude_deg": -2.092422622446147e-06,
      "longitude_deg": 129.03047339266018,
      "height_km": 355.8662529696391,
      "semi_major_axis_km": 6734.530872211117,
      "eccentricity": 0.00018143,
      "inclination_deg": 43.0005,
      "raan_deg": 308.0454,
      "arg_perigee_deg": 284.2351,
      "mean_anomaly_deg": 75.8315,
      "mean_motion_rev_day": 15.70875404
    },
    {
      "epoch": "2026-03-30T07:04:22.369440Z",
      "apogee_km": 357.05385037664746,
      "perigee_km": 355.7096404350641,
      "latitude_deg": -5.427416080518789e-07,
      "longitude_deg": 12.344895474946467,
      "height_km": 355.602151917456,
      "semi_major_axis_km": 6734.518745405855,
      "eccentricity": 9.98e-05,
      "inclination_deg": 42.9981,
      "raan_deg": 306.1266,
      "arg_perigee_deg": 325.0908,
      "mean_anomaly_deg": 34.9894,
      "mean_motion_rev_day": 15.70879647
    },
    {
      "epoch": "2026-03-30T20:48:24.109344Z",
      "apogee_km": 357.27173350065823,
      "perigee_km": 355.330599043612,
      "latitude_deg": 1.5577070711758236e-05,
      "longitude_deg": 162.3255359192465,
      "height_km": 356.50512467228447,
      "semi_major_axis_km": 6734.438166272134,
      "eccentricity": 0.00014412,
      "inclination_deg": 42.998,
      "raan_deg": 302.6785,
      "arg_perigee_deg": 243.5767,
      "mean_anomaly_deg": 116.4953,
      "mean_motion_rev_day": 15.70907841
    },
    {
      "epoch": "2026-03-30T23:51:30.949344Z",
      "apogee_km": 358.19471113023246,
      "perigee_km": 354.29671572804546,
      "latitude_deg": 2.7441680369121596e-06,
      "longitude_deg": 115.6560853012456,
      "height_km": 356.16515365193834,
      "semi_major_axis_km": 6734.382713429139,
      "eccentricity": 0.00028941,
      "inclination_deg": 43.0014,
      "raan_deg": 301.9129,
      "arg_perigee_deg": 265.7105,
      "mean_anomaly_deg": 94.3432,
      "mean_motion_rev_day": 15.70927244
    },
    {
      "epoch": "2026-04-01T14:00:30.817728Z",
      "apogee_km": 357.47915986768567,
      "perigee_km": 355.1503864445285,
      "latitude_deg": 5.951182284875057e-05,
      "longitude_deg": -107.74116695626084,
      "height_km": 355.66081868492034,
      "semi_major_axis_km": 6734.451773156107,
      "eccentricity": 0.0001729,
      "inclination_deg": 42.9982,
      "raan_deg": 292.3318,
      "arg_perigee_deg": 291.4825,
      "mean_anomaly_deg": 68.5859,
      "mean_motion_rev_day": 15.7090308
    }
  ]
}